ONEWEB-0395             
1 50475U 21132G   25239.80595420 -.00000435  00000+0 -12637-2 0  9998
2 50475  87.8772  79.5430 0001698  96.7690 263.3632 13.11415272177266
ONEWEB-0396             
1 50476U 21132H   25239.90443998  .00000052  00000+0  99668-4 0  9996
2 50476  87.9159  33.6921 0001879  95.3820 264.7527 13.18686200182985
ONEWEB-0397             
1 50477U 21132J   25239.84339487 -.00000140  00000+0 -38750-3 0  9991
2 50477  87.9159  33.7053 0001945  90.9425 269.1930 13.18685084182952
ONEWEB-0398             
1 50478U 21132K   25239.85005174  .00000535  00000+0  14737-2 0  9990
2 50478  87.8784  79.4981 0001366  95.7222 264.4062 13.11416438177167
ONEWEB-0399             
1 50479U 21132L   25239.83647343  .00003171  00000+0  89119-2 0  9994
2 50479  87.8774  79.5240 0002148  95.6624 264.4748 13.11395649177150
ONEWEB-0400             
1 50480U 21132M   25239.89782386 -.00000009  00000+0 -54844-4 0  9997
2 50480  87.9159  33.6846 0001608  99.1852 260.9462 13.18684471182954
ONEWEB-0401             
1 50481U 21132N   25239.86650783 -.00000006  00000+0 -48970-4 0  9990
2 50481  87.9161  33.6871 0001847  87.8740 272.2604 13.18684986182956
ONEWEB-0402             
1 50482U 21132P   25239.90607979 -.00000039  00000+0 -13077-3 0  9990
2 50482  87.9160  33.6725 0001990  76.0331 284.1022 13.18683796182986
